NORAD_CAT_ID,OBJECT_NAME,OBJECT_TYPE,EPOCH,MEAN_MOTION,ECCENTRICITY,INCLINATION,RA_OF_ASC_NODE,ARG_OF_PERICENTER,MEAN_ANOMALY,BSTAR,MEAN_MOTION_DOT,MEAN_MOTION_DDOT,TLE_LINE0,TLE_LINE1,TLE_LINE2,SEMIMAJOR_AXIS,PERIOD,APOGEE,PERIGEE,DECAYED
53790.0,STARLINK-4734,PAYLOAD,2023-07-20 14:20:12,15.08844432,0.0001182,53.2167,277.4842,94.1451,265.9677,0.00011661,1.569e-05,0.0,0 STARLINK-4734,1 53790U 22111T   23201.59736864  .00001569  00000-0  11661-3 0  9996,2 53790  53.2167 277.4842 0001182  94.1451 265.9677 15.08844432 47495,6917.867,95.437,540.55,538.914,0.0
53790.0,STARLINK-4734,PAYLOAD,2023-07-21 14:10:59,15.08842386,0.0001102,53.2169,273.0245,97.0186,263.0931,0.00010618,1.403e-05,0.0,0 STARLINK-4734,1 53790U 22111T   23202.59097033  .00001403  00000-0  10618-3 0  9993,2 53790  53.2169 273.0245 0001102  97.0186 263.0931 15.08842386 47640,6917.873,95.437,540.5,538.976,0.0
53790.0,STARLINK-4734,PAYLOAD,2023-07-24 12:07:58,15.08837842,0.000139,53.2165,259.9396,95.6331,264.482,3.0291e-05,1.94e-06,0.0,0 STARLINK-4734,1 53790U 22111T   23205.50553323  .00000194  00000-0  30291-4 0  9992,2 53790  53.2165 259.9396 0001390  95.6331 264.4820 15.08837842 48892,6917.887,95.438,540.714,538.79,0.0
53790.0,STARLINK-4734,PAYLOAD,2023-07-25 11:58:45,15.08836432,0.0001208,53.2156,255.4795,110.8656,249.2466,1.4719e-05,-5.4e-07,0.0,0 STARLINK-4734,1 53790U 22111T   23206.49913568 -.00000054  00000-0  14719-4 0  9995,2 53790  53.2156 255.4795 0001208 110.8656 249.2466 15.08836432 49043,6917.891,95.438,540.592,538.921,0.0
53790.0,STARLINK-4734,PAYLOAD,2023-07-26 11:49:32,15.08836983,0.0001197,53.2148,251.0187,114.5546,245.5571,2.8616e-05,1.68e-06,0.0,0 STARLINK-4734,1 53790U 22111T   23207.49273781  .00000168  00000-0  28616-4 0  9998,2 53790  53.2148 251.0187 0001197 114.5546 245.5571 15.08836983 49190,6917.89,95.438,540.583,538.927,0.0
53790.0,STARLINK-4734,PAYLOAD,2023-07-26 19:46:28,15.08837462,9.97e-05,53.2154,249.5335,86.9503,273.1603,7.8683e-05,9.65e-06,0.0,0 STARLINK-4734,1 53790U 22111T   23207.82393691  .00000965  00000-0  78683-4 0  9992,2 53790  53.2154 249.5335 0000997  86.9503 273.1603 15.08837462 49248,6917.888,95.438,540.443,539.063,0.0
53790.0,STARLINK-4734,PAYLOAD,2023-07-27 11:40:19,15.0884398,9.98e-05,53.2155,246.5595,87.2859,272.8247,9.4058e-05,1.21e-05,0.0,0 STARLINK-4734,1 53790U 22111T   23208.48633236  .00001210  00000-0  94058-4 0  9995,2 53790  53.2155 246.5595 0000998  87.2859 272.8247 15.08843980 49346,6917.868,95.437,540.424,539.043,0.0
53790.0,STARLINK-4734,PAYLOAD,2023-07-27 19:37:15,15.08835902,0.0001017,53.2156,245.0723,91.5751,268.5358,3.2834e-05,2.35e-06,0.0,0 STARLINK-4734,1 53790U 22111T   23208.81753921  .00000235  00000-0  32834-4 0  9996,2 53790  53.2156 245.0723 0001017  91.5751 268.5358 15.08835902 49391,6917.893,95.438,540.461,539.054,0.0
53790.0,STARLINK-4734,PAYLOAD,2023-07-28 01:58:48,15.08827791,9.93e-05,53.215,243.8843,91.3556,268.7549,8.2796e-05,1.03e-05,0.0,0 STARLINK-4734,1 53790U 22111T   23209.08250262  .00001030  00000-0  82796-4 0  9992,2 53790  53.2150 243.8843 0000993  91.3556 268.7549 15.08827791 48623,6917.918,95.438,540.47,539.096,0.0
53790.0,STARLINK-4734,PAYLOAD,2023-07-28 11:31:07,15.08834508,0.0001025,53.2154,242.0995,90.6214,269.4896,1.4771e-05,-5.3e-07,0.0,0 STARLINK-4734,1 53790U 22111T   23209.47994296 -.00000053  00000-0  14771-4 0  9990,2 53790  53.2154 242.0995 0001025  90.6214 269.4896 15.08834508 49499,6917.897,95.438,540.471,539.053,0.0
53790.0,STARLINK-4734,PAYLOAD,2023-07-29 08:11:07,15.08841386,0.0001057,53.2154,238.2338,88.8713,271.24,9.0464e-06,-1.44e-06,0.0,0 STARLINK-4734,1 53790U 22111T   23210.34105976 -.00000144  00000-0  90464-5 0  9992,2 53790  53.2154 238.2338 0001057  88.8713 271.2400 15.08841386 48814,6917.876,95.437,540.472,539.01,0.0
53790.0,STARLINK-4734,PAYLOAD,2023-07-30 09:37:17,15.08843533,0.0001018,53.2156,233.4757,87.2932,272.8177,0.0001107,1.475e-05,0.0,0 STARLINK-4734,1 53790U 22111T   23211.40089516  .00001475  00000-0  11070-3 0  9992,2 53790  53.2156 233.4757 0001018  87.2932 272.8177 15.08843533 48972,6917.87,95.437,540.439,539.03,0.0
53790.0,STARLINK-4734,PAYLOAD,2023-07-31 01:31:09,15.08839224,0.0001089,53.2157,230.502,87.238,272.8737,3.2519e-05,2.3e-06,0.0,0 STARLINK-4734,1 53790U 22111T   23212.06330003  .00000230  00000-0  32519-4 0  9995,2 53790  53.2157 230.5020 0001089  87.2380 272.8737 15.08839224 49075,6917.883,95.438,540.501,538.994,0.0
53790.0,STARLINK-4734,PAYLOAD,2023-08-01 17:15:47,15.08837645,0.0001031,53.2156,223.0677,90.2916,269.8194,-2.3843e-05,-6.67e-06,0.0,0 STARLINK-4734,1 53790U 22111T   23213.71930222 -.00000667  00000-0 -23843-4 0  9993,2 53790  53.2156 223.0677 0001031  90.2916 269.8194 15.08837645 49321,6917.888,95.438,540.466,539.039,0.0
53790.0,STARLINK-4734,PAYLOAD,2023-08-03 01:03:30,15.08835991,0.0001001,53.2156,217.1206,93.8147,266.296,4.9343e-05,4.98e-06,0.0,0 STARLINK-4734,1 53790U 22111T   23215.04410425  .00000498  00000-0  49343-4 0  9992,2 53790  53.2156 217.1206 0001001  93.8147 266.2960 15.08835991 49521,6917.893,95.438,540.45,539.065,0.0
53790.0,STARLINK-4734,PAYLOAD,2023-08-04 00:54:18,15.08831262,0.0001059,53.2162,212.6611,94.5417,265.5696,1.78e-06,-2.59e-06,0.0,0 STARLINK-4734,1 53790U 22111T   23216.03771162 -.00000259  00000-0  17800-5 0  9990,2 53790  53.2162 212.6611 0001059  94.5417 265.5696 15.08831262 49670,6917.907,95.438,540.505,539.039,0.0
53790.0,STARLINK-4734,PAYLOAD,2023-08-05 00:45:05,15.08839377,0.0001061,53.2164,208.2001,86.3573,273.754,4.1284e-05,3.69e-06,0.0,0 STARLINK-4734,1 53790U 22111T   23217.03130825  .00000369  00000-0  41284-4 0  9999,2 53790  53.2164 208.2001 0001061  86.3573 273.7540 15.08839377 49822,6917.882,95.438,540.481,539.013,0.0
53790.0,STARLINK-4734,PAYLOAD,2023-08-06 05:22:00,15.08843802,0.0001021,53.216,202.8478,86.8695,273.2414,0.00013305,1.831e-05,0.0,0 STARLINK-4734,1 53790U 22111T   23218.22362119  .00001831  00000-0  13305-3 0  9991,2 53790  53.2160 202.8478 0001021  86.8695 273.2414 15.08843802 50007,6917.869,95.437,540.44,539.027,0.0
53790.0,STARLINK-4734,PAYLOAD,2023-08-07 05:12:48,15.08835891,0.00011,53.2154,198.3866,96.6357,263.4761,2.4296e-06,-2.49e-06,0.0,0 STARLINK-4734,1 53790U 22111T   23219.21723047 -.00000249  00000-0  24296-5 0  9998,2 53790  53.2154 198.3866 0001100  96.6357 263.4761 15.08835891 50153,6917.893,95.438,540.519,538.997,0.0
53790.0,STARLINK-4734,PAYLOAD,2023-08-08 08:14:21,15.0883978,0.0001001,53.2164,193.3298,105.0701,255.0402,0.00012372,1.682e-05,0.0,0 STARLINK-4734,1 53790U 22111T   23220.34330326  .00001682  00000-0  12372-3 0  9999,2 53790  53.2164 193.3298 0001001 105.0701 255.0402 15.08839780 50325,6917.881,95.438,540.439,539.054,0.0
53790.0,STARLINK-4734,PAYLOAD,2023-08-08 22:32:50,15.08832925,0.0001282,53.2166,190.6531,108.098,252.0152,4.5142e-05,4.31e-06,0.0,0 STARLINK-4734,1 53790U 22111T   23220.93947113  .00000431  00000-0  45142-4 0  9995,2 53790  53.2166 190.6531 0001282 108.0980 252.0152 15.08832925 50413,6917.902,95.438,540.654,538.88,0.0
53790.0,STARLINK-4734,PAYLOAD,2023-08-10 06:20:33,15.08840812,0.0001123,53.2156,184.7076,92.2735,267.8385,-1.4358e-05,-5.16e-06,0.0,0 STARLINK-4734,1 53790U 22111T   23222.26427137 -.00000516  00000-0 -14358-4 0  9993,2 53790  53.2156 184.7076 0001123  92.2735 267.8385 15.08840812 50614,6917.878,95.438,540.52,538.966,0.0
53790.0,STARLINK-4734,PAYLOAD,2023-08-10 22:14:25,15.08831182,0.0001356,53.2154,181.7347,93.044,267.0707,-4.8417e-06,-3.65e-06,0.0,0 STARLINK-4734,1 53790U 22111T   23222.92667889 -.00000365  00000-0 -48417-5 0  9992,2 53790  53.2154 181.7347 0001356  93.0440 267.0707 15.08831182 50711,6917.907,95.438,540.71,538.834,0.0
53790.0,STARLINK-4734,PAYLOAD,2023-08-12 02:51:21,15.08838796,0.0001439,53.2185,176.3844,94.7453,265.3703,6.4617e-05,7.41e-06,0.0,0 STARLINK-4734,1 53790U 22111T   23224.11899577  .00000741  00000-0  64617-4 0  9991,2 53790  53.2185 176.3844 0001439  94.7453 265.3703 15.08838796 50895,6917.884,95.438,540.745,538.754,0.0
53790.0,STARLINK-4734,PAYLOAD,2023-08-13 05:52:54,15.08842587,0.0001184,53.2156,171.3266,89.9737,270.1391,6.3846e-05,7.28e-06,0.0,0 STARLINK-4734,1 53790U 22111T   23225.24507411  .00000728  00000-0  63846-4 0  9997,2 53790  53.2156 171.3266 0001184  89.9737 270.1391 15.08842587 51064,6917.872,95.437,540.557,538.918,0.0
53790.0,STARLINK-4734,PAYLOAD,2023-08-15 02:23:42,15.08842625,0.000131,53.2163,162.9999,93.0995,267.0147,2.2222e-05,6.6e-07,0.0,0 STARLINK-4734,1 53790U 22111T   23227.09979686  .00000066  00000-0  22222-4 0  9997,2 53790  53.2163 162.9999 0001310  93.0995 267.0147 15.08842625 51342,6917.872,95.437,540.644,538.831,0.0
53790.0,STARLINK-4734,PAYLOAD,2023-08-16 05:25:15,15.08834291,0.0001429,53.2174,157.9443,95.9038,264.2117,0.00014084,1.954e-05,0.0,0 STARLINK-4734,1 53790U 22111T   23228.22587775  .00001954  00000-0  14084-3 0  9990,2 53790  53.2174 157.9443 0001429  95.9038 264.2117 15.08834291 51517,6917.898,95.438,540.751,538.774,0.0
53790.0,STARLINK-4734,PAYLOAD,2023-08-18 01:56:03,15.08840424,0.0001197,53.2154,149.6196,93.1157,266.9972,1.61e-05,-3.2e-07,0.0,0 STARLINK-4734,1 53790U 22111T   23230.08059776 -.00000032  00000-0  16100-4 0  9991,2 53790  53.2154 149.6196 0001197  93.1157 266.9972 15.08840424 51795,6917.879,95.438,540.572,538.916,0.0
53790.0,STARLINK-4734,PAYLOAD,2023-08-19 03:22:14,15.08838619,0.0001348,53.2178,144.8615,82.5095,277.6051,-1.4342e-05,-5.16e-06,0.0,0 STARLINK-4734,1 53790U 22111T   23231.14044401 -.00000516  00000-0 -14342-4 0  9992,2 53790  53.2178 144.8615 0001348  82.5095 277.6051 15.08838619 51953,6917.885,95.438,540.682,538.817,0.0
53790.0,STARLINK-4734,PAYLOAD,2023-08-20 03:13:01,15.08818002,0.0001513,53.2183,140.4009,93.7366,266.3799,0.00026852,3.986e-05,0.0,0 STARLINK-4734,1 53790U 22111T   23232.13405069  .00003986  00000-0  26852-3 0  9993,2 53790  53.2183 140.4009 0001513  93.7366 266.3799 15.08818002 52103,6917.948,95.439,540.859,538.766,0.0
